STARLINK-2144
1 27734C 21017N   21325.14963459  .00005201  00000-0  34852-3 0  3256
2 27734  53.0558  57.5584 0001345  73.9403 161.7316 15.06389951    19
